[{"OBJECT_NAME":"SENTINEL-1C","OBJECT_ID":"2024-235A","EPOCH":"2026-03-09T23:20:28.555872","MEAN_MOTION":14.59198602,"ECCENTRICITY":0.00013367,"INCLINATION":98.1825,"RA_OF_ASC_NODE":77.6943,"ARG_OF_PERICENTER":90.3687,"MEAN_ANOMALY":269.7665,"EPHEMERIS_TYPE":0,"CLASSIFICATION_TYPE":"U","NORAD_CAT_ID":62261,"ELEMENT_SET_NO":999,"REV_AT_EPOCH":6694,"BSTAR":0.00020454831,"MEAN_MOTION_DOT":9.19e-6,"MEAN_MOTION_DDOT":0},{"OBJECT_NAME":"DUMMY CUBESAT","OBJECT_ID":"2022-065H","EPOCH":"2026-03-09T23:18:21.832992","MEAN_MOTION":14.60506881,"ECCENTRICITY":0.00071077,"INCLINATION":98.2104,"RA_OF_ASC_NODE":210.8696,"ARG_OF_PERICENTER":342.4639,"MEAN_ANOMALY":17.6315,"EPHEMERIS_TYPE":0,"CLASSIFICATION_TYPE":"U","NORAD_CAT_ID":52983,"ELEMENT_SET_NO":999,"REV_AT_EPOCH":19566,"BSTAR":0.00013850477,"MEAN_MOTION_DOT":6.25e-6,"MEAN_MOTION_DDOT":0}]
